COSMOS 2419 (714)       
1 28915U 05050A   17017.61451699 -.00000047  00000-0  00000+0 0  9993
2 28915  65.4222  70.9289 0015054 348.1662 135.4264  2.13109007 86123
COSMOS 2425 (716)       
1 29670U 06062A   17017.72707964 -.00000052  00000-0  10000-3 0  9998
2 29670  65.5354 309.9347 0022767 342.4810 282.2204  2.13104967 78328
COSMOS 2426 (717)       
1 29671U 06062B   17018.39385225 -.00000056  00000-0  10000-3 0  9999
2 29671  65.5521 309.9985 0015795 170.1183 105.5008  2.13103110 78345
COSMOS 2424 (715)       
1 29672U 06062C   17018.12114765 -.00000055  00000-0  10000-3 0  9999
2 29672  65.5364 309.9321 0015222 168.5870  73.5584  2.13102051 78339
COSMOS 2433 (720)       
1 32275U 07052A   17018.45616171 -.00000049  00000-0  10000-3 0  9999
2 32275  65.4380  70.6765 0003910 259.0890  37.1290  2.13104974 71858
COSMOS 2432 (719)       
1 32276U 07052B   17017.33994532 -.00000046  00000-0  10000-3 0  9993
2 32276  65.4502  70.7823 0011653 329.3376 143.7930  2.13104098 71834
COSMOS 2434 (721)       
1 32393U 07065A   17018.06244081 -.00000055  00000-0  00000+0 0  9990
2 32393  65.1518 309.1445 0002121  97.6187 147.0118  2.13102821 70557
COSMOS 2436 (723)       
1 32395U 07065C   17018.41713072 -.00000057  00000-0  10000-3 0  9999
2 32395  65.1615 309.1761 0016119 354.4549 210.2157  2.13104227 70497
COSMOS 2443 (725)       
1 33379U 08046B   17018.35901485 -.00000049  00000-0  00000+0 0  9998
2 33379  65.3668  70.0744 0016335 187.9746 296.0277  2.13102024 64720
COSMOS 2456 (730)       
1 36111U 09070A   17017.30246427  .00000068  00000-0  00000+0 0  9995
2 36111  64.1804 188.7360 0003366 351.0875 201.0482  2.13102897 55209
COSMOS 2457 (733)       
1 36112U 09070B   17017.74261365  .00000073  00000-0  00000+0 0  9998
2 36112  64.1620 188.6433 0007272 147.3015 151.7701  2.13101591 55214
COSMOS 2458 (734)       
1 36113U 09070C   17017.44633225  .00000070  00000-0  10000-3 0  9996
2 36113  64.1669 188.6607 0003148  60.5401  58.9575  2.13101960 55211
COSMOS 2459 (731)       
1 36400U 10007A   17017.47902959 -.00000047  00000-0  10000-3 0  9998
2 36400  65.3464  69.8319 0027464 349.7869 140.1921  2.13102257 53568
COSMOS 2461 (735)       
1 36401U 10007B   17017.61467590 -.00000048  00000-0  10000-3 0  9993
2 36401  65.3389  69.8073 0005016  69.3352  75.2983  2.13102157 53568
COSMOS 2460 (732)       
1 36402U 10007C   17017.43315299 -.00000047  00000-0  10000-3 0  9991
2 36402  65.3298  69.7891 0001364 256.2370 150.6828  2.13101865 53565
COSMOS 2465 (737)       
1 37138U 10041B   17018.24880810 -.00000056  00000-0  00000+0 0  9997
2 37138  64.7501 309.2024 0034196 173.9955 257.1665  2.13104264 49658
COSMOS 2464 (736)       
1 37139U 10041C   17017.45635802 -.00000052  00000-0  00000+0 0  9995
2 37139  64.7577 309.2266 0023700   7.7885 359.6014  2.13102661 49649
COSMOS 2471 (701K)      
1 37372U 11009A   17018.52482720 -.00000050  00000-0  00000+0 0  9995
2 37372  65.3278  69.7016 0008834 236.5602  61.1731  2.13102863 45858
COSMOS 2474 (742)       
1 37829U 11055A   17018.45633023  .00000081  00000-0  00000+0 0  9992
2 37829  64.5048 189.1992 0005840 243.3689 334.4215  2.13101891 41226
COSMOS 2476 (744)       
1 37867U 11064A   17017.60737059  .00000072  00000-0  00000+0 0  9994
2 37867  64.4832 189.3044 0014903 241.3144  91.0776  2.13101991 40556
COSMOS 2477 (745)       
1 37868U 11064B   17018.42397590  .00000081  00000-0  00000+0 0  9998
2 37868  64.4926 189.3184 0012908 242.3391 175.7473  2.13101833 40531
COSMOS 2475 (743)       
1 37869U 11064C   17017.47818824  .00000071  00000-0  00000+0 0  9990
2 37869  64.4998 189.3407 0017768 274.1637  94.6683  2.13102038 40523
COSMOS 2485 (747)       
1 39155U 13019A   17018.31700579  .00000080  00000-0  00000+0 0  9993
2 39155  64.6550 189.2765 0015504 235.2028 326.6827  2.13101998 29049
COSMOS 2492 (754)       
1 39620U 14012A   17018.11053751 -.00000049  00000-0  10000-3 0  9996
2 39620  65.2197  69.7227 0015251 326.4663 110.8141  2.13103487 21995
COSMOS 2500 (755)       
1 40001U 14032A   17018.26923580 -.00000050  00000-0  00000+0 0  9992
2 40001  65.1597  69.7256 0006986 215.4465 206.9186  2.13102825 20212
COSMOS 2501 (702K)      
1 40315U 14075A   17018.32755573 -.00000058  00000-0  00000+0 0  9997
2 40315  64.4845 310.5922 0014788 215.1033  59.9467  2.13100511 16619
COSMOS 2514 (751)       
1 41330U 16008A   17017.42461784 -.00000048  00000-0  00000+0 0  9990
2 41330  64.9604  69.9368 0010365 220.3657  93.6395  2.13103427  7356
COSMOS 2516 (753)       
1 41554U 16032A   17018.15759902 -.00000056  00000-0  00000+0 0  9997
2 41554  64.7034 310.3199 0011982 232.2315 177.5428  2.13101655  4989
